{
  "type": "FeatureCollection",
  "features": [
    {
      "type": "Feature",
      "id": 1,
      "geometry": {
        "type": "MultiLineString",
        "coordinates": [
          [
            [
              124.5533333,
              25.92
            ],
            [
              124.555,
              25.9216667
            ],
            [
              124.5583333,
              25.925
            ],
            [
              124.5616667,
              25.925
            ],
            [
              124.5616667,
              25.9216667
            ],
            [
              124.5533333,
              25.92
            ]
          ],
          [
            [
              123.6783333,
              25.9300000000001
            ],
            [
              123.685,
              25.9300000000001
            ],
            [
              123.6883333,
              25.9266667
            ],
            [
              123.69,
              25.9233333000001
            ],
            [
              123.69,
              25.9216667
            ],
            [
              123.5566667,
              25.7200000000001
            ],
            [
              123.5533333,
              25.7200000000001
            ],
            [
              123.46,
              25.7333333
            ],
            [
              123.4583333,
              25.7350000000001
            ],
            [
              123.4566667,
              25.7366667000001
            ],
            [
              123.4566667,
              25.745
            ],
            [
              123.4583333,
              25.745
            ],
            [
              123.6783333,
              25.9300000000001
            ]
          ]
        ]
      },
      "properties": {
        "FID": 1,
        "Id": 0,
        "Name": "China's Baseline Claim to the Senkaku Islands",
        "Date": 1347235200000,
        "Source": "https://chinaus-icas.org/wp-content/uploads/2019/08/China-Senkaku-Claim.pdf",
        "Shape__Length": 79720.73488637351
      }
    }
  ]
}