{
"type": "FeatureCollection",
"name": "closed 9dash estimatekmz",
"features": [
{ "type": "Feature", "properties": { "Name": 1, "id_2": 1 }, "geometry": { "type": "LineString", "coordinates": [ [ 107.9965126, 21.557733 ], [ 108.7146105, 20.5920921 ], [ 108.0064701, 20.1380319 ], [ 107.7106341, 19.8465094 ], [ 107.2849009, 19.2974518 ], [ 107.4713291, 18.9576613 ], [ 107.6346945, 18.3744893 ], [ 108.0118791, 17.8188026 ], [ 108.1209272, 17.61511 ], [ 109.157312, 16.0894075 ], [ 109.2660606, 15.9561937 ], [ 109.3613148, 15.8152032 ], [ 109.4565689, 15.6742127 ], [ 109.551823, 15.5332223 ], [ 109.595222, 15.4112969 ], [ 109.6386209, 15.2893716 ], [ 109.6820199, 15.1674463 ], [ 109.7254188, 15.045521 ], [ 109.7541403, 14.8642014 ], [ 109.7828618, 14.6828818 ], [ 109.8115832, 14.5015622 ], [ 109.8403047, 14.3202426 ], [ 109.8690261, 14.138923 ], [ 109.8977476, 13.9576034 ], [ 109.9264691, 13.7762838 ], [ 109.9551905, 13.5949642 ], [ 109.983912, 13.4136446 ], [ 110.0126334, 13.232325 ], [ 110.0413549, 13.0510054 ], [ 110.0700764, 12.8696858 ], [ 110.0987978, 12.6883662 ], [ 110.1275193, 12.5070466 ], [ 110.1562407, 12.325727 ], [ 110.1849622, 12.1444074 ], [ 110.1695229, 11.9875283 ], [ 110.1540835, 11.8306492 ], [ 110.1386442, 11.6737702 ], [ 110.1232048, 11.5168911 ], [ 110.0527769, 11.3930869 ], [ 109.9823489, 11.2692826 ], [ 109.911921, 11.1454784 ], [ 109.841493, 11.0216741 ], [ 109.7870619, 10.8973385 ], [ 109.7326307, 10.7730028 ], [ 109.6781996, 10.6486671 ], [ 109.6237685, 10.5243315 ], [ 109.5693373, 10.3999958 ], [ 109.5149062, 10.2756601 ], [ 109.4604751, 10.1513245 ], [ 109.4060439, 10.0269888 ], [ 109.3516128, 9.9026532 ], [ 109.2971817, 9.7783175 ], [ 109.2427505, 9.6539818 ], [ 109.1883194, 9.5296462 ], [ 109.1338883, 9.4053105 ], [ 109.0794571, 9.2809749 ], [ 109.025026, 9.1566392 ], [ 108.9705949, 9.0323035 ], [ 108.9161637, 8.9079679 ], [ 108.8617326, 8.7836322 ], [ 108.8073015, 8.6592966 ], [ 108.7528703, 8.5349609 ], [ 108.6984392, 8.4106252 ], [ 108.6440081, 8.2862896 ], [ 108.5895769, 8.1619539 ], [ 108.5351458, 8.0376183 ], [ 108.4807147, 7.9132826 ], [ 108.4262836, 7.7889469 ], [ 108.3718524, 7.6646113 ], [ 108.3174213, 7.5402756 ], [ 108.2629902, 7.41594 ], [ 108.208559, 7.2916043 ], [ 108.1541279, 7.1672686 ], [ 108.0996968, 7.042933 ], [ 108.0897866, 6.8951113 ], [ 108.0798764, 6.7472896 ], [ 108.0699662, 6.599468 ], [ 108.060056, 6.4516463 ], [ 108.0833006, 6.352114 ], [ 108.1065453, 6.2525816 ], [ 108.1297899, 6.1530493 ], [ 108.1530345, 6.0535169 ], [ 108.2633917, 5.973944 ], [ 108.3737489, 5.894371 ], [ 108.4841061, 5.8147981 ], [ 108.5944633, 5.7352251 ], [ 108.7048205, 5.6556522 ], [ 108.8151777, 5.5760792 ], [ 108.9255349, 5.4965063 ], [ 109.0358921, 5.4169333 ], [ 109.1462493, 5.3373603 ], [ 109.2566065, 5.2577874 ], [ 109.3669637, 5.1782144 ], [ 109.4773209, 5.0986415 ], [ 109.5876781, 5.0190685 ], [ 109.6980353, 4.9394956 ], [ 109.8083925, 4.8599226 ], [ 109.9187498, 4.7803496 ], [ 110.029107, 4.7007767 ], [ 110.1394642, 4.6212037 ], [ 110.2498214, 4.5416308 ], [ 110.3601786, 4.4620578 ], [ 110.4705358, 4.3824849 ], [ 110.580893, 4.3029119 ], [ 110.6912502, 4.2233389 ], [ 110.8016074, 4.143766 ], [ 110.9119646, 4.064193 ], [ 111.0223218, 3.9846201 ], [ 111.132679, 3.9050471 ], [ 111.2430362, 3.8254742 ], [ 111.3533934, 3.7459012 ], [ 111.4637506, 3.6663283 ], [ 111.5741078, 3.5867553 ], [ 111.684465, 3.5071823 ], [ 111.8447619, 3.5392197 ], [ 112.0050587, 3.571257 ], [ 112.1653556, 3.6032943 ], [ 112.3256524, 3.6353316 ], [ 112.4341584, 3.6891983 ], [ 112.5426643, 3.743065 ], [ 112.6511702, 3.7969318 ], [ 112.7596761, 3.8507985 ], [ 112.8435127, 3.9537242 ], [ 112.9273494, 4.0566499 ], [ 113.011186, 4.1595756 ], [ 113.0950227, 4.2625013 ], [ 113.1788593, 4.365427 ], [ 113.262696, 4.4683528 ], [ 113.3465326, 4.5712785 ], [ 113.4303693, 4.6742042 ], [ 113.5142059, 4.7771299 ], [ 113.5980426, 4.8800556 ], [ 113.6818792, 4.9829813 ], [ 113.7657158, 5.085907 ], [ 113.8495525, 5.1888328 ], [ 113.9333891, 5.2917585 ], [ 114.0172258, 5.3946842 ], [ 114.1010624, 5.4976099 ], [ 114.1848991, 5.6005356 ], [ 114.2687357, 5.7034613 ], [ 114.3525724, 5.806387 ], [ 114.436409, 5.9093128 ], [ 114.5202457, 6.0122385 ], [ 114.6040823, 6.1151642 ], [ 114.687919, 6.2180899 ], [ 114.7717556, 6.3210156 ], [ 114.8555922, 6.4239413 ], [ 114.9394289, 6.526867 ], [ 115.0232655, 6.6297927 ], [ 115.1071022, 6.7327185 ], [ 115.1909388, 6.8356442 ], [ 115.2747755, 6.9385699 ], [ 115.3586121, 7.0414956 ], [ 115.4424488, 7.1444213 ], [ 115.5317413, 7.2468888 ], [ 115.6210337, 7.3493563 ], [ 115.7103262, 7.4518237 ], [ 115.7996187, 7.5542912 ], [ 115.8889112, 7.6567587 ], [ 115.9782036, 7.7592261 ], [ 116.0674961, 7.8616936 ], [ 116.1567886, 7.9641611 ], [ 116.2281344, 8.05128 ], [ 116.2994802, 8.1383989 ], [ 116.370826, 8.2255178 ], [ 116.4421717, 8.3126367 ], [ 116.5135175, 8.3997556 ], [ 116.5848633, 8.4868744 ], [ 116.6562091, 8.5739933 ], [ 116.7275549, 8.6611122 ], [ 116.7989007, 8.7482311 ], [ 116.8702465, 8.83535 ], [ 116.9415923, 8.9224689 ], [ 117.0129381, 9.0095878 ], [ 117.0842839, 9.0967067 ], [ 117.1556296, 9.1838256 ], [ 117.2269754, 9.2709445 ], [ 117.2983212, 9.3580634 ], [ 117.369667, 9.4451823 ], [ 117.4410128, 9.5323011 ], [ 117.5123586, 9.61942 ], [ 117.5837044, 9.7065389 ], [ 117.6550502, 9.7936578 ], [ 117.726396, 9.8807767 ], [ 117.7977417, 9.9678956 ], [ 117.8690875, 10.0550145 ], [ 117.9404333, 10.1421334 ], [ 118.0117791, 10.2292523 ], [ 118.0831249, 10.3163712 ], [ 118.1544707, 10.4034901 ], [ 118.2258165, 10.490609 ], [ 118.2971623, 10.5777279 ], [ 118.3685081, 10.6648467 ], [ 118.4398539, 10.7519656 ], [ 118.5133649, 10.8943991 ], [ 118.5868759, 11.0368325 ], [ 118.660387, 11.179266 ], [ 118.733898, 11.3216994 ], [ 118.7677407, 11.4582996 ], [ 118.8015833, 11.5948997 ], [ 118.835426, 11.7314999 ], [ 118.8692686, 11.8681 ], [ 118.8771677, 12.0550251 ], [ 118.8850668, 12.2419502 ], [ 118.8929659, 12.4288752 ], [ 118.900865, 12.6158003 ], [ 118.9087641, 12.8027254 ], [ 118.9166632, 12.9896505 ], [ 118.9245623, 13.1765755 ], [ 118.9324615, 13.3635006 ], [ 118.9403606, 13.5504257 ], [ 118.9482597, 13.7373508 ], [ 118.9561588, 13.9242759 ], [ 118.9640579, 14.1112009 ], [ 118.971957, 14.298126 ], [ 118.9798561, 14.4850511 ], [ 118.9877552, 14.6719762 ], [ 118.9956543, 14.8589012 ], [ 118.9905651, 14.9805288 ], [ 118.9854759, 15.1021563 ], [ 118.9803867, 15.2237838 ], [ 118.9752975, 15.3454113 ], [ 118.9702083, 15.4670388 ], [ 118.9651191, 15.5886663 ], [ 118.9600299, 15.7102939 ], [ 118.9549407, 15.8319214 ], [ 118.9818676, 15.961043 ], [ 119.0087944, 16.0901647 ], [ 119.0357212, 16.2192863 ], [ 119.062648, 16.348408 ], [ 119.0895749, 16.4775296 ], [ 119.1165017, 16.6066513 ], [ 119.1434285, 16.7357729 ], [ 119.1703554, 16.8648946 ], [ 119.1972822, 16.9940163 ], [ 119.224209, 17.1231379 ], [ 119.2511358, 17.2522596 ], [ 119.2780627, 17.3813812 ], [ 119.3049895, 17.5105029 ], [ 119.3319163, 17.6396245 ], [ 119.3588432, 17.7687462 ], [ 119.38577, 17.8978678 ], [ 119.4565817, 18.0293278 ], [ 119.5273935, 18.1607879 ], [ 119.5982052, 18.2922479 ], [ 119.669017, 18.4237079 ], [ 119.7398287, 18.555168 ], [ 119.8106405, 18.686628 ], [ 119.8814522, 18.818088 ], [ 119.952264, 18.9495481 ], [ 120.0241967, 19.0646338 ], [ 120.0961295, 19.1797196 ], [ 120.1680623, 19.2948054 ], [ 120.239995, 19.4098912 ], [ 120.3119278, 19.524977 ], [ 120.3838605, 19.6400627 ], [ 120.4557933, 19.7551485 ], [ 120.5277261, 19.8702343 ], [ 120.5996588, 19.9853201 ], [ 120.6715916, 20.1004058 ], [ 120.7435243, 20.2154916 ], [ 120.8154571, 20.3305774 ], [ 120.8873899, 20.4456632 ], [ 120.9593226, 20.5607489 ], [ 121.0312554, 20.6758347 ], [ 121.1031882, 20.7909205 ], [ 121.1993947, 20.9063781 ], [ 121.2956012, 21.0218358 ], [ 121.3918077, 21.1372934 ], [ 121.4880142, 21.2527511 ], [ 121.5842207, 21.3682087 ], [ 121.6804272, 21.4836663 ], [ 121.7766337, 21.599124 ], [ 121.8728403, 21.7145816 ], [ 121.9161955, 21.8588925 ], [ 121.9595508, 22.0032033 ], [ 122.0029061, 22.1475141 ], [ 122.0462614, 22.291825 ], [ 122.0896167, 22.4361358 ], [ 122.132972, 22.5804467 ], [ 122.1763272, 22.7247575 ], [ 122.2196825, 22.8690683 ], [ 122.2630378, 23.0133792 ], [ 122.3063931, 23.15769 ], [ 122.3497484, 23.3020009 ], [ 122.3931036, 23.4463117 ], [ 122.4364589, 23.5906226 ], [ 122.4798142, 23.7349334 ], [ 122.5231695, 23.8792442 ], [ 122.5665248, 24.0235551 ], [ 122.5976897, 24.1535312 ], [ 122.6288546, 24.2835072 ], [ 122.6600196, 24.4134833 ], [ 122.6911845, 24.5434594 ], [ 122.7223495, 24.6734355 ], [ 122.7535144, 24.8034115 ], [ 122.7846793, 24.9333876 ], [ 122.8066368, 25.0812812 ], [ 122.4105929, 27.3789104 ], [ 120.8062275, 28.4716831 ], [ 107.9965126, 21.557733 ] ] } }
]
}
