{
  "type": "FeatureCollection",
  "features": [
    {
      "type": "Feature",
      "geometry": {
        "type": "LineString",
        "coordinates": [
          [
            109.170806499194,
            16.0971841854954
          ],
          [
            109.551823007727,
            15.533222263812
          ],
          [
            109.725418836381,
            15.0455209976883
          ],
          [
            110.18496220556,
            12.1444073958374
          ],
          [
            110.123204829907,
            11.5168911005805
          ],
          [
            109.841492995222,
            11.0216741101506
          ],
          [
            108.099696756438,
            7.04293298707812
          ],
          [
            108.060056040145,
            6.45164628797932
          ],
          [
            108.153034469051,
            6.05351694809754
          ],
          [
            111.684465039756,
            3.5071823413124
          ],
          [
            112.325652448184,
            3.63533160423678
          ],
          [
            112.759676087316,
            3.85079847710314
          ],
          [
            115.442448773539,
            7.14442131809019
          ],
          [
            116.156788589879,
            7.96416109348087
          ],
          [
            118.439853853307,
            10.7519656342359
          ],
          [
            118.733897993977,
            11.3216994007894
          ],
          [
            118.869268621672,
            11.8681000031067
          ],
          [
            118.995654286131,
            14.8589012395381
          ],
          [
            118.954940736833,
            15.8319213857355
          ],
          [
            119.385769978737,
            17.8978678141974
          ],
          [
            119.95226397018,
            18.9495480688414
          ],
          [
            121.103188154651,
            20.7909204955213
          ],
          [
            121.87284025743,
            21.7145816208964
          ],
          [
            122.566524773092,
            24.0235550740676
          ],
          [
            122.815844264932,
            25.0633636822467
          ]
        ]
      },
      "properties": {
        "id": 1
      }
    }
  ]
}