{
"type": "FeatureCollection",
"name": "Temporary Places",
"features": [
{ "type": "Feature", "properties": { "Name": "Beibu Basin" }, "geometry": { "type": "Polygon", "coordinates": [ [ [ 109.2122522, 21.1425194 ], [ 108.6532251, 21.0698499 ], [ 107.9160606, 20.837609 ], [ 107.4896566, 20.4045167 ], [ 107.0118349, 20.0172753 ], [ 107.739876, 19.3310615 ], [ 108.2638253, 19.2764337 ], [ 108.6252665, 19.4132649 ], [ 108.7860693, 19.6651363 ], [ 109.0238163, 19.7759617 ], [ 109.3367002, 19.8941721 ], [ 109.6628876, 19.8351278 ], [ 110.0728205, 19.7496925 ], [ 110.462966, 19.8042134 ], [ 110.5648571, 19.9863948 ], [ 110.4988519, 20.3927354 ], [ 110.3831511, 20.730598 ], [ 110.141475, 20.8646532 ], [ 109.9620806, 21.0269852 ], [ 109.5076982, 21.0072449 ], [ 109.2122522, 21.1425194 ] ] ] } },
{ "type": "Feature", "properties": { "Name": "Song Hong Basin" }, "geometry": { "type": "Polygon", "coordinates": [ [ [ 106.3570506, 20.8041597 ], [ 105.9702481, 20.7238182 ], [ 106.4363378, 20.0463967 ], [ 106.815819, 19.2977691 ], [ 106.892853, 18.8667092 ], [ 106.7764985, 18.4644322 ], [ 106.6708133, 18.0592747 ], [ 106.9198871, 17.6330142 ], [ 107.3063167, 17.1096324 ], [ 108.190273, 16.6839657 ], [ 108.6694436, 16.1490249 ], [ 109.0240828, 15.5471601 ], [ 109.2398637, 14.8830387 ], [ 109.2960367, 14.4103388 ], [ 109.4888345, 13.8177108 ], [ 109.9377686, 13.7988407 ], [ 109.9881771, 14.270705 ], [ 109.8845703, 14.7688061 ], [ 109.8074734, 15.1505077 ], [ 109.6921245, 15.4217058 ], [ 109.6534085, 15.7031244 ], [ 109.5968481, 16.1111741 ], [ 109.4191751, 16.6110606 ], [ 109.4536721, 17.3130041 ], [ 109.5262683, 17.9287981 ], [ 109.2707933, 18.0280969 ], [ 108.792541, 18.207685 ], [ 108.4109758, 18.5138274 ], [ 108.0928874, 18.8973908 ], [ 107.7544559, 19.3214332 ], [ 107.0185378, 20.0003649 ], [ 106.3570506, 20.8041597 ] ] ] } },
{ "type": "Feature", "properties": { "Name": "Phy Khanh Basin" }, "geometry": { "type": "Polygon", "coordinates": [ [ [ 109.5369388, 13.2418254 ], [ 109.5746125, 12.7230765 ], [ 109.488774, 12.213152 ], [ 109.3375699, 11.6393028 ], [ 109.0221942, 11.2382269 ], [ 109.0745662, 9.5190197 ], [ 109.9331105, 10.2505829 ], [ 110.1586928, 10.5349343 ], [ 110.2452511, 11.1269804 ], [ 109.912126, 11.5900354 ], [ 109.8139453, 12.4971553 ], [ 109.8379081, 13.2933553 ], [ 109.9266986, 13.7917409 ], [ 109.508231, 13.8244627 ], [ 109.5369388, 13.2418254 ] ] ] } },
{ "type": "Feature", "properties": { "Name": "Qiongdongnon Basin" }, "geometry": { "type": "Polygon", "coordinates": [ [ [ 110.3653186, 13.9826635 ], [ 110.9149863, 14.8505903 ], [ 111.1923012, 15.7681573 ], [ 111.3951385, 16.6225273 ], [ 112.1214886, 17.0522693 ], [ 112.5142806, 16.9428011 ], [ 112.9804526, 16.8813374 ], [ 113.4184119, 16.9420843 ], [ 113.6848505, 17.0693169 ], [ 113.9673433, 17.6490161 ], [ 113.1451418, 17.5395663 ], [ 112.651519, 17.4050146 ], [ 112.316467, 17.8911139 ], [ 112.0365262, 18.4228027 ], [ 111.4246988, 18.573332 ], [ 110.5975011, 18.7731987 ], [ 110.112185, 18.395245 ], [ 109.5189826, 17.9534876 ], [ 109.4022762, 16.620142 ], [ 109.6009335, 16.0972564 ], [ 109.6954467, 15.40726 ], [ 109.8216265, 15.1104542 ], [ 109.9933518, 14.2368757 ], [ 109.9298059, 13.7520436 ], [ 110.3653186, 13.9826635 ] ] ] } },
{ "type": "Feature", "properties": { "Name": "Taixinan Basin" }, "geometry": { "type": "Polygon", "coordinates": [ [ [ 118.1514882, 21.2970393 ], [ 118.4598281, 21.7245115 ], [ 119.0850252, 21.8303097 ], [ 120.013744, 22.2145396 ], [ 120.3827565, 22.5156186 ], [ 120.7177315, 23.136515 ], [ 120.5883909, 23.8325898 ], [ 119.6408645, 23.7702019 ], [ 119.258846, 23.4270475 ], [ 118.4567069, 22.6624941 ], [ 117.8844515, 22.0811694 ], [ 118.1514882, 21.2970393 ] ] ] } },
{ "type": "Feature", "properties": { "Name": "Pearl River Mouth Basin" }, "geometry": { "type": "Polygon", "coordinates": [ [ [ 113.9509825, 17.6372322 ], [ 115.1167716, 18.2764284 ], [ 116.72394, 18.4778016 ], [ 117.8508784, 19.1724767 ], [ 118.1496824, 21.2874247 ], [ 117.8912962, 22.0890791 ], [ 116.4150822, 21.740467 ], [ 115.9229174, 21.2269757 ], [ 115.2307546, 20.6649181 ], [ 113.9645989, 20.1011497 ], [ 112.7792802, 19.911403 ], [ 110.5972975, 18.7783754 ], [ 112.053766, 18.3922109 ], [ 112.3018847, 17.8901735 ], [ 112.6387446, 17.3880835 ], [ 113.2165671, 17.5375528 ], [ 113.9509825, 17.6372322 ] ] ] } },
{ "type": "Feature", "properties": { "Name": "Cuu Long Basin" }, "geometry": { "type": "Polygon", "coordinates": [ [ [ 109.0362761, 11.2825458 ], [ 107.6004272, 10.6399054 ], [ 106.5243629, 9.6275468 ], [ 106.0648071, 9.2755983 ], [ 105.7652281, 8.8904208 ], [ 105.7631127, 8.5225728 ], [ 106.1567571, 7.8605063 ], [ 109.1037704, 9.5095472 ], [ 109.0362761, 11.2825458 ] ] ] } },
{ "type": "Feature", "properties": { "Name": "Nam Con Son Basin" }, "geometry": { "type": "Polygon", "coordinates": [ [ [ 106.1761194, 7.8904159 ], [ 106.7464597, 6.6726045 ], [ 107.733255, 5.5542847 ], [ 109.2110235, 7.1166368 ], [ 110.0010986, 7.4745194 ], [ 110.6352441, 7.5478995 ], [ 110.6586967, 8.1802577 ], [ 111.1731971, 9.2423883 ], [ 112.1176812, 10.082865 ], [ 110.738084, 10.076997 ], [ 109.8119928, 9.786965 ], [ 109.1054936, 9.5253634 ], [ 106.1761194, 7.8904159 ] ] ] } },
{ "type": "Feature", "properties": { "Name": "Greater Sarawk Basin" }, "geometry": { "type": "Polygon", "coordinates": [ [ [ 107.7184182, 5.5822327 ], [ 108.2996525, 4.3559672 ], [ 108.6901006, 3.9109204 ], [ 109.2202638, 3.0503631 ], [ 110.8703169, 2.541983 ], [ 111.6938087, 2.250947 ], [ 113.0218274, 3.0145028 ], [ 114.1495318, 4.0529913 ], [ 113.2190719, 4.9284867 ], [ 112.8836908, 5.2088133 ], [ 112.3746528, 5.6353766 ], [ 112.5236956, 6.0953537 ], [ 110.8087557, 6.7016261 ], [ 110.6396542, 7.5473393 ], [ 110.0865733, 7.5067579 ], [ 109.1825595, 7.1502808 ], [ 107.7184182, 5.5822327 ] ] ] } },
{ "type": "Feature", "properties": { "Name": "Baram Delta Basin" }, "geometry": { "type": "Polygon", "coordinates": [ [ [ 116.6114196, 9.0574344 ], [ 116.1438363, 8.4901856 ], [ 115.3780313, 7.9562209 ], [ 114.8537059, 7.6573241 ], [ 114.3934723, 7.058003 ], [ 114.0278745, 6.4397441 ], [ 113.2296624, 6.0041993 ], [ 112.4911737, 6.0591172 ], [ 112.3922725, 5.6248236 ], [ 114.133096, 4.040062 ], [ 115.0446551, 4.5673863 ], [ 115.7285468, 5.3080577 ], [ 116.3958287, 6.2936632 ], [ 116.8752616, 7.1932758 ], [ 116.9729148, 7.7456324 ], [ 116.9465305, 8.7090239 ], [ 117.0334222, 9.3738508 ], [ 116.6114196, 9.0574344 ] ] ] } },
{ "type": "Feature", "properties": { "Name": "Palawan Shelf" }, "geometry": { "type": "Polygon", "coordinates": [ [ [ 117.4606103, 8.4856482 ], [ 117.8068874, 9.0072791 ], [ 118.359484, 9.7237018 ], [ 119.0774645, 10.4662999 ], [ 119.0363625, 11.2476519 ], [ 119.7192408, 12.3534711 ], [ 120.1262596, 12.7358916 ], [ 119.2986316, 12.8858831 ], [ 118.6985674, 12.1180843 ], [ 118.1772354, 11.6322953 ], [ 117.7304502, 10.299567 ], [ 117.0332442, 9.3579822 ], [ 116.946653, 8.7248284 ], [ 116.9439657, 8.3772707 ], [ 116.9728592, 7.7298404 ], [ 117.4606103, 8.4856482 ] ] ] } },
{ "type": "Feature", "properties": { "Name": "South China Sea Platform" }, "geometry": { "type": "Polygon", "coordinates": [ [ [ 119.1012205, 13.0685553 ], [ 118.6125031, 13.2619231 ], [ 118.3192758, 13.1878011 ], [ 118.103103, 12.8783724 ], [ 118.0234169, 12.5412884 ], [ 117.7197664, 11.923345 ], [ 117.5798322, 11.6430863 ], [ 117.3853786, 11.8208914 ], [ 117.0622303, 12.1146337 ], [ 116.6667924, 12.1115256 ], [ 116.3156336, 11.6663887 ], [ 116.06462, 11.0332248 ], [ 115.7413556, 11.0973592 ], [ 115.2412506, 11.5987677 ], [ 114.5591528, 11.6474484 ], [ 113.8947987, 11.3890831 ], [ 113.6411461, 10.7927921 ], [ 112.9432783, 10.762892 ], [ 112.1380042, 10.1233954 ], [ 111.1833917, 9.2599734 ], [ 110.6515827, 8.2028373 ], [ 110.6396542, 7.5473393 ], [ 110.7588898, 6.7006277 ], [ 112.5072915, 6.0752764 ], [ 113.1814927, 5.9557928 ], [ 114.0596668, 6.424026 ], [ 114.3775933, 6.9789982 ], [ 114.901352, 7.657329 ], [ 116.3522752, 8.6158614 ], [ 116.5629337, 9.0101043 ], [ 117.01638, 9.2945363 ], [ 117.7298419, 10.2674876 ], [ 118.1928734, 11.5996147 ], [ 118.6809816, 12.1012013 ], [ 119.3131345, 12.8351916 ], [ 119.1012205, 13.0685553 ] ] ] } }
]
}
